[
    {
        "CCSDS_OMM_VERS": "3.0",
        "COMMENT": "GENERATED VIA SPACE-TRACK.ORG API",
        "CREATION_DATE": "2025-04-14T03:05:54",
        "ORIGINATOR": "18 SPCS",
        "OBJECT_NAME": "BD-21",
        "OBJECT_ID": "2016-006A",
        "CENTER_NAME": "EARTH",
        "REF_FRAME": "TEME",
        "TIME_SYSTEM": "UTC",
        "MEAN_ELEMENT_THEORY": "SGP4",
        "EPOCH": "2025-04-13T11:14:09.008448",
        "MEAN_MOTION": "1.86231301",
        "ECCENTRICITY": "0.00051070",
        "INCLINATION": "56.3317",
        "RA_OF_ASC_NODE": "77.8272",
        "ARG_OF_PERICENTER": "291.5834",
        "MEAN_ANOMALY": "68.3366",
        "EPHEMERIS_TYPE": "0",
        "CLASSIFICATION_TYPE": "U",
        "NORAD_CAT_ID": "41315",
        "ELEMENT_SET_NO": "999",
        "REV_AT_EPOCH": "6259",
        "BSTAR": "0.00000000000000",
        "MEAN_MOTION_DOT": "-0.00000015",
        "MEAN_MOTION_DDOT": "0.0000000000000",
        "SEMIMAJOR_AXIS": "27906.158",
        "PERIOD": "773.232",
        "APOAPSIS": "21542.275",
        "PERIAPSIS": "21513.772",
        "OBJECT_TYPE": "PAYLOAD",
        "RCS_SIZE": "LARGE",
        "COUNTRY_CODE": "PRC",
        "LAUNCH_DATE": "2016-02-01",
        "SITE": "XSC",
        "DECAY_DATE": null,
        "FILE": "4701263",
        "GP_ID": "285537307",
        "TLE_LINE0": "0 BD-21",
        "TLE_LINE1": "1 41315U 16006A   25103.46815982 -.00000015  00000-0  00000-0 0  9998",
        "TLE_LINE2": "2 41315  56.3317  77.8272 0005107 291.5834  68.3366  1.86231301 62598"
    }
]